{
"type": "FeatureCollection",
"name": "ag_landuse",
"crs": { "type": "name", "properties": { "name": "urn:ogc:def:crs:OGC:1.3:CRS84" } },
"features": [
{ "type": "Feature", "properties": { "landuse": "farmland", "osm_id": "way/61366276" }, "geometry": { "type": "Polygon", "coordinates": [ [ [ -119.7451623, 36.8229429 ], [ -119.745207, 36.8194727 ], [ -119.7451849, 36.8171118 ], [ -119.746319, 36.8171242 ], [ -119.746325, 36.8168628 ], [ -119.7496543, 36.8168711 ], [ -119.749681, 36.8180632 ], [ -119.751737, 36.8180738 ], [ -119.75181, 36.8159932 ], [ -119.7539726, 36.8160023 ], [ -119.753978, 36.8229541 ], [ -119.7539403, 36.8229879 ], [ -119.7451623, 36.8229429 ] ] ] } },
{ "type": "Feature", "properties": { "landuse": "farmland", "osm_id": "way/61366485" }, "geometry": { "type": "Polygon", "coordinates": [ [ [ -119.7347969, 36.8157461 ], [ -119.7292172, 36.8157262 ], [ -119.7292175, 36.8156712 ], [ -119.7277108, 36.8156302 ], [ -119.7276578, 36.8155659 ], [ -119.727671, 36.8147994 ], [ -119.7289112, 36.8135683 ], [ -119.7290831, 36.8134859 ], [ -119.7327997, 36.8135143 ], [ -119.7330121, 36.8135159 ], [ -119.7352879, 36.8135349 ], [ -119.7352888, 36.8139815 ], [ -119.735663, 36.8139853 ], [ -119.7356654, 36.8140632 ], [ -119.7360561, 36.8140712 ], [ -119.736036, 36.8150244 ], [ -119.7352484, 36.8150165 ], [ -119.7352446, 36.8157286 ], [ -119.7347969, 36.8157461 ] ] ] } },
{ "type": "Feature", "properties": { "landuse": "farmland", "osm_id": "way/61405510" }, "geometry": { "type": "Polygon", "coordinates": [ [ [ -119.7357451, 36.8266676 ], [ -119.7328075, 36.8266445 ], [ -119.729936, 36.8266565 ], [ -119.7299305, 36.8261012 ], [ -119.7298061, 36.8260674 ], [ -119.7297453, 36.8237342 ], [ -119.7297161, 36.8235085 ], [ -119.7296568, 36.8233391 ], [ -119.7297259, 36.8232399 ], [ -119.7355775, 36.823261 ], [ -119.735794, 36.8234285 ], [ -119.735828, 36.8235043 ], [ -119.7358144, 36.8265371 ], [ -119.7357451, 36.8266676 ] ] ] } },
{ "type": "Feature", "properties": { "landuse": "farmland", "osm_id": "way/61441436" }, "geometry": { "type": "Polygon", "coordinates": [ [ [ -119.7293753, 36.8227905 ], [ -119.729231, 36.8225011 ], [ -119.7287795, 36.8219006 ], [ -119.7281133, 36.8211383 ], [ -119.7278633, 36.8207547 ], [ -119.7277115, 36.8204209 ], [ -119.7275733, 36.8199903 ], [ -119.7275279, 36.819598 ], [ -119.7275173, 36.8193915 ], [ -119.7276629, 36.8159365 ], [ -119.7276838, 36.8159089 ], [ -119.7292163, 36.815891 ], [ -119.7292166, 36.815836 ], [ -119.734688, 36.8158687 ], [ -119.7350285, 36.8158889 ], [ -119.7352951, 36.8158909 ], [ -119.7355867, 36.815897 ], [ -119.7357076, 36.8159376 ], [ -119.7357808, 36.8159463 ], [ -119.7358133, 36.8159594 ], [ -119.735915, 36.8160179 ], [ -119.735936, 36.8160387 ], [ -119.7359595, 36.8160794 ], [ -119.7359763, 36.8161216 ], [ -119.7359865, 36.8161651 ], [ -119.7359909, 36.8163527 ], [ -119.7359758, 36.8170849 ], [ -119.7359884, 36.8184655 ], [ -119.735976, 36.8190686 ], [ -119.7359639, 36.8190684 ], [ -119.7359628, 36.8191233 ], [ -119.7359749, 36.8191235 ], [ -119.7359268, 36.8214584 ], [ -119.7359128, 36.8218182 ], [ -119.7358795, 36.8220131 ], [ -119.7358735, 36.8220704 ], [ -119.7358274, 36.8228593 ], [ -119.7357768, 36.8229061 ], [ -119.7357309, 36.8229237 ], [ -119.729463, 36.8228325 ], [ -119.7293753, 36.8227905 ] ] ] } },
{ "type": "Feature", "properties": { "landuse": "orchard", "osm_id": "way/61824362" }, "geometry": { "type": "Polygon", "coordinates": [ [ [ -119.7284529, 36.822802 ], [ -119.727153, 36.8228186 ], [ -119.7271793, 36.8211154 ], [ -119.727501, 36.8211045 ], [ -119.7276895, 36.8213504 ], [ -119.7283571, 36.8222289 ], [ -119.7284618, 36.8224209 ], [ -119.7284529, 36.822802 ] ] ] } },
{ "type": "Feature", "properties": { "landuse": "orchard", "osm_id": "way/61824665" }, "geometry": { "type": "Polygon", "coordinates": [ [ [ -119.720009, 36.822849 ], [ -119.7190124, 36.8228259 ], [ -119.7189947, 36.8225702 ], [ -119.7212809, 36.8203309 ], [ -119.7232894, 36.8185255 ], [ -119.723674, 36.8183984 ], [ -119.7238359, 36.8181496 ], [ -119.7247026, 36.8181468 ], [ -119.7246832, 36.8195222 ], [ -119.7267559, 36.8195185 ], [ -119.7269246, 36.8196867 ], [ -119.7269014, 36.8228639 ], [ -119.720009, 36.822849 ] ] ] } },
{ "type": "Feature", "properties": { "landuse": "orchard", "osm_id": "way/1096809155" }, "geometry": { "type": "Polygon", "coordinates": [ [ [ -119.7316355, 36.8159552 ], [ -119.7315735, 36.8190924 ], [ -119.7315043, 36.8190924 ], [ -119.7315043, 36.8191381 ], [ -119.731551, 36.8191409 ], [ -119.7315545, 36.8193182 ], [ -119.7314004, 36.8193376 ], [ -119.7302304, 36.8193265 ], [ -119.7301474, 36.8192988 ], [ -119.7302189, 36.8165158 ], [ -119.7302986, 36.8165186 ], [ -119.7303119, 36.8159492 ], [ -119.7316355, 36.8159552 ] ] ] } },
{ "type": "Feature", "properties": { "landuse": "orchard", "osm_id": "way/1096809156" }, "geometry": { "type": "Polygon", "coordinates": [ [ [ -119.7301721, 36.816529 ], [ -119.730112, 36.8193172 ], [ -119.7300904, 36.8193299 ], [ -119.7287021, 36.8193199 ], [ -119.728693, 36.8193027 ], [ -119.7287546, 36.8165592 ], [ -119.7287771, 36.8165484 ], [ -119.72898, 36.8165135 ], [ -119.7290626, 36.8165087 ], [ -119.730152, 36.8165207 ], [ -119.7301721, 36.816529 ] ] ] } },
{ "type": "Feature", "properties": { "landuse": "orchard", "osm_id": "way/1096809157" }, "geometry": { "type": "Polygon", "coordinates": [ [ [ -119.7316752, 36.8183511 ], [ -119.7317443, 36.8183535 ], [ -119.7317428, 36.818321 ], [ -119.7331913, 36.8183247 ], [ -119.7331843, 36.8193949 ], [ -119.7317795, 36.8193876 ], [ -119.7317808, 36.8192853 ], [ -119.731666, 36.819278 ], [ -119.7316752, 36.8183511 ] ] ] } },
{ "type": "Feature", "properties": { "landuse": "orchard", "osm_id": "way/1096809158" }, "geometry": { "type": "Polygon", "coordinates": [ [ [ -119.7330839, 36.8171113 ], [ -119.7334987, 36.817128 ], [ -119.7335665, 36.8170893 ], [ -119.7341639, 36.8170935 ], [ -119.7341835, 36.8171134 ], [ -119.7341768, 36.8182139 ], [ -119.7341011, 36.8182274 ], [ -119.7331045, 36.8182191 ], [ -119.7330771, 36.8182055 ], [ -119.7330839, 36.8171113 ] ] ] } },
{ "type": "Feature", "properties": { "landuse": "orchard", "osm_id": "way/1096809159" }, "geometry": { "type": "Polygon", "coordinates": [ [ [ -119.7315833, 36.821805 ], [ -119.7316012, 36.8217938 ], [ -119.7357688, 36.8218139 ], [ -119.7357867, 36.8218299 ], [ -119.7357668, 36.8228305 ], [ -119.7357548, 36.8228561 ], [ -119.7357369, 36.8228593 ], [ -119.7328092, 36.8228595 ], [ -119.7327926, 36.8228282 ], [ -119.7318006, 36.8228285 ], [ -119.731721, 36.8227972 ], [ -119.7315828, 36.8226834 ], [ -119.7315671, 36.8226416 ], [ -119.7315833, 36.821805 ] ] ] } },
{ "type": "Feature", "properties": { "landuse": "farmland", "osm_id": "way/1096809160" }, "geometry": { "type": "Polygon", "coordinates": [ [ [ -119.7452728, 36.8233758 ], [ -119.7454793, 36.8233292 ], [ -119.7493633, 36.8233391 ], [ -119.7494965, 36.8233722 ], [ -119.7496228, 36.8234861 ], [ -119.7496389, 36.8235744 ], [ -119.7496427, 36.8249917 ], [ -119.749566, 36.8250235 ], [ -119.7495633, 36.8253962 ], [ -119.7496163, 36.8254004 ], [ -119.7496183, 36.8266351 ], [ -119.74955, 36.8267019 ], [ -119.7453261, 36.8266971 ], [ -119.7452913, 36.8266499 ], [ -119.7452759, 36.8242579 ], [ -119.7452728, 36.8233758 ] ] ] } },
{ "type": "Feature", "properties": { "landuse": "orchard", "osm_id": "way/1096809161" }, "geometry": { "type": "Polygon", "coordinates": [ [ [ -119.7498383, 36.8268074 ], [ -119.7539229, 36.8268041 ], [ -119.7539588, 36.8268185 ], [ -119.7539672, 36.829324 ], [ -119.7539398, 36.829348 ], [ -119.7538707, 36.8293553 ], [ -119.7526119, 36.8293616 ], [ -119.7525767, 36.829324 ], [ -119.7522597, 36.8293219 ], [ -119.7522506, 36.8293574 ], [ -119.7498479, 36.8293715 ], [ -119.7498284, 36.8293534 ], [ -119.7498081, 36.8268371 ], [ -119.7498383, 36.8268074 ] ] ] } },
{ "type": "Feature", "properties": { "landuse": "orchard", "osm_id": "way/1096809162" }, "geometry": { "type": "Polygon", "coordinates": [ [ [ -119.7406348, 36.8268945 ], [ -119.7407189, 36.8268837 ], [ -119.745009, 36.8268933 ], [ -119.7450905, 36.8269323 ], [ -119.7451064, 36.8269749 ], [ -119.7451174, 36.8299197 ], [ -119.7406287, 36.8299248 ], [ -119.7406348, 36.8268945 ] ] ] } },
{ "type": "Feature", "properties": { "landuse": "orchard", "osm_id": "way/1096809163" }, "geometry": { "type": "Polygon", "coordinates": [ [ [ -119.7406287, 36.8299248 ], [ -119.7451174, 36.8299197 ], [ -119.7450934, 36.8301023 ], [ -119.74504, 36.8301506 ], [ -119.745016, 36.8301579 ], [ -119.7407071, 36.8301609 ], [ -119.7406395, 36.830106 ], [ -119.7406287, 36.8299248 ] ] ] } },
{ "type": "Feature", "properties": { "landuse": "orchard", "osm_id": "way/1096809165" }, "geometry": { "type": "Polygon", "coordinates": [ [ [ -119.7342449, 36.8170987 ], [ -119.7342708, 36.8170877 ], [ -119.7347312, 36.8170932 ], [ -119.734752, 36.8171126 ], [ -119.7347476, 36.8182157 ], [ -119.7347316, 36.8182381 ], [ -119.734299, 36.8182333 ], [ -119.7342352, 36.8181918 ], [ -119.7342449, 36.8170987 ] ] ] } },
{ "type": "Feature", "properties": { "landuse": "orchard", "osm_id": "way/1096809166" }, "geometry": { "type": "Polygon", "coordinates": [ [ [ -119.7352001, 36.8182317 ], [ -119.7348293, 36.8182333 ], [ -119.7348074, 36.8182109 ], [ -119.7348225, 36.8171068 ], [ -119.7348398, 36.8170957 ], [ -119.735186, 36.8171013 ], [ -119.735212, 36.8171234 ], [ -119.7352001, 36.8182317 ] ] ] } },
{ "type": "Feature", "properties": { "landuse": "orchard", "osm_id": "way/1096809167" }, "geometry": { "type": "Polygon", "coordinates": [ [ [ -119.7358918, 36.8206378 ], [ -119.7358763, 36.8217421 ], [ -119.7358607, 36.8217601 ], [ -119.7348499, 36.8217573 ], [ -119.7346232, 36.821749 ], [ -119.7345747, 36.8217421 ], [ -119.7330932, 36.821731 ], [ -119.7331105, 36.8206281 ], [ -119.7358918, 36.8206378 ] ] ] } },
{ "type": "Feature", "properties": { "landuse": "orchard", "osm_id": "way/1096809168" }, "geometry": { "type": "Polygon", "coordinates": [ [ [ -119.7358345, 36.8205717 ], [ -119.7358644, 36.8205478 ], [ -119.7358653, 36.820041 ], [ -119.7359371, 36.8200394 ], [ -119.735947, 36.8195143 ], [ -119.7359092, 36.8195031 ], [ -119.7345594, 36.8195095 ], [ -119.7345415, 36.8194967 ], [ -119.7331579, 36.8194808 ], [ -119.733136, 36.8205676 ], [ -119.7358345, 36.8205717 ] ] ] } },
{ "type": "Feature", "properties": { "landuse": "farmland", "osm_id": "way/1216348382" }, "geometry": { "type": "Polygon", "coordinates": [ [ [ -119.7452128, 36.8299207 ], [ -119.7452091, 36.8268277 ], [ -119.7452581, 36.8268072 ], [ -119.7496183, 36.8267981 ], [ -119.749663, 36.8268485 ], [ -119.7496671, 36.8299302 ], [ -119.7452128, 36.8299207 ] ] ] } },
{ "type": "Feature", "properties": { "landuse": "orchard", "osm_id": "way/1216348383" }, "geometry": { "type": "Polygon", "coordinates": [ [ [ -119.7496671, 36.8299302 ], [ -119.7496671, 36.8301824 ], [ -119.7496346, 36.8302035 ], [ -119.7452825, 36.8301808 ], [ -119.7452276, 36.8301303 ], [ -119.7452128, 36.8299207 ], [ -119.7496671, 36.8299302 ] ] ] } },
{ "type": "Feature", "properties": { "landuse": "orchard", "osm_id": "way/1216348384" }, "geometry": { "type": "Polygon", "coordinates": [ [ [ -119.7405991, 36.8299253 ], [ -119.7362857, 36.8299292 ], [ -119.7362835, 36.8300725 ], [ -119.7363473, 36.8301548 ], [ -119.7364104, 36.8301807 ], [ -119.7405005, 36.8302017 ], [ -119.740556, 36.8301721 ], [ -119.740593, 36.8301166 ], [ -119.7405991, 36.8299253 ] ] ] } },
{ "type": "Feature", "properties": { "landuse": "orchard", "osm_id": "way/1216348385" }, "geometry": { "type": "Polygon", "coordinates": [ [ [ -119.7405991, 36.8299253 ], [ -119.7405612, 36.8268491 ], [ -119.7362597, 36.8268449 ], [ -119.7362857, 36.8299292 ], [ -119.7405991, 36.8299253 ] ] ] } },
{ "type": "Feature", "properties": { "landuse": "farmland", "osm_id": "way/1216348386" }, "geometry": { "type": "Polygon", "coordinates": [ [ [ -119.7405602, 36.8266423 ], [ -119.7363454, 36.8266423 ], [ -119.7362961, 36.8265733 ], [ -119.7362837, 36.8233621 ], [ -119.7363885, 36.823303 ], [ -119.7405787, 36.8232734 ], [ -119.7405602, 36.8266423 ] ] ] } },
{ "type": "Feature", "properties": { "landuse": "farmland", "osm_id": "way/1216348387" }, "geometry": { "type": "Polygon", "coordinates": [ [ [ -119.7406508, 36.8238775 ], [ -119.7407558, 36.823876 ], [ -119.7407915, 36.8238365 ], [ -119.7408159, 36.8237845 ], [ -119.7408139, 36.8233224 ], [ -119.7409976, 36.8232929 ], [ -119.7449963, 36.8233083 ], [ -119.7450086, 36.8266773 ], [ -119.7406705, 36.8266575 ], [ -119.7406508, 36.8238775 ] ] ] } },
{ "type": "Feature", "properties": { "landuse": "farmland", "osm_id": "way/1216348390" }, "geometry": { "type": "Polygon", "coordinates": [ [ [ -119.7517387, 36.8250879 ], [ -119.7496948, 36.8251695 ], [ -119.7496894, 36.8235292 ], [ -119.7498021, 36.8233102 ], [ -119.7499362, 36.8232758 ], [ -119.753128, 36.8233102 ], [ -119.7531817, 36.8233832 ], [ -119.7532085, 36.8237911 ], [ -119.7532675, 36.8238383 ], [ -119.7538791, 36.8238426 ], [ -119.7539434, 36.8238985 ], [ -119.7539434, 36.8266724 ], [ -119.7538951, 36.8267153 ], [ -119.7508643, 36.8267196 ], [ -119.7508374, 36.8266681 ], [ -119.7517387, 36.8250879 ] ] ] } },
{ "type": "Feature", "properties": { "landuse": "farmland", "osm_id": "way/1216348391" }, "geometry": { "type": "Polygon", "coordinates": [ [ [ -119.7521317, 36.8301896 ], [ -119.7498394, 36.8301822 ], [ -119.7497962, 36.8301526 ], [ -119.7498055, 36.8294744 ], [ -119.7498609, 36.8294177 ], [ -119.752122, 36.8293959 ], [ -119.7521317, 36.8301896 ] ] ] } },
{ "type": "Feature", "properties": { "landuse": "vineyard", "osm_id": "way/1216348392" }, "geometry": { "type": "Polygon", "coordinates": [ [ [ -119.7452391, 36.8167176 ], [ -119.7452471, 36.8159532 ], [ -119.7461886, 36.8159618 ], [ -119.7461859, 36.8167369 ], [ -119.7452391, 36.8167176 ] ] ] } },
{ "type": "Feature", "properties": { "landuse": "farmland", "osm_id": "way/1216348393" }, "geometry": { "type": "Polygon", "coordinates": [ [ [ -119.7450962, 36.8229504 ], [ -119.7451184, 36.8167392 ], [ -119.7438585, 36.8167364 ], [ -119.743862, 36.8170764 ], [ -119.7434862, 36.8170735 ], [ -119.7434061, 36.8194512 ], [ -119.7407985, 36.8194504 ], [ -119.7394583, 36.81945 ], [ -119.738259, 36.8194496 ], [ -119.738256, 36.8200579 ], [ -119.736511, 36.8200698 ], [ -119.736502, 36.819446 ], [ -119.736332, 36.8194512 ], [ -119.7362302, 36.8227647 ], [ -119.7363936, 36.8228993 ], [ -119.7374187, 36.8228899 ], [ -119.7377222, 36.822931 ], [ -119.7450962, 36.8229504 ] ] ] } },
{ "type": "Feature", "properties": { "landuse": "farmyard", "osm_id": "way/1216348396" }, "geometry": { "type": "Polygon", "coordinates": [ [ [ -119.7427216, 36.8170662 ], [ -119.7416485, 36.8170557 ], [ -119.7416625, 36.8166407 ], [ -119.7410881, 36.816637 ], [ -119.7410507, 36.8173996 ], [ -119.7408499, 36.8174034 ], [ -119.7408402, 36.8177886 ], [ -119.7407985, 36.8194504 ], [ -119.7434061, 36.8194512 ], [ -119.7434862, 36.8170735 ], [ -119.7427216, 36.8170662 ] ] ] } },
{ "type": "Feature", "properties": { "landuse": "farmyard", "osm_id": "way/1216348397" }, "geometry": { "type": "Polygon", "coordinates": [ [ [ -119.7408402, 36.8177886 ], [ -119.7401821, 36.8177922 ], [ -119.7401868, 36.8172688 ], [ -119.7395236, 36.817265 ], [ -119.7394583, 36.81945 ], [ -119.7407985, 36.8194504 ], [ -119.7408402, 36.8177886 ] ] ] } },
{ "type": "Feature", "properties": { "landuse": "farmyard", "osm_id": "way/1216348398" }, "geometry": { "type": "Polygon", "coordinates": [ [ [ -119.7394583, 36.81945 ], [ -119.738259, 36.8194496 ], [ -119.736502, 36.819446 ], [ -119.736332, 36.8194512 ], [ -119.736334, 36.8170744 ], [ -119.7383842, 36.8170819 ], [ -119.738627, 36.817265 ], [ -119.7395236, 36.817265 ], [ -119.7394583, 36.81945 ] ] ] } },
{ "type": "Feature", "properties": { "landuse": "farmyard", "osm_id": "way/1216348399" }, "geometry": { "type": "Polygon", "coordinates": [ [ [ -119.7392518, 36.8157747 ], [ -119.7392518, 36.8156676 ], [ -119.7392518, 36.814834 ], [ -119.7393155, 36.8147235 ], [ -119.7393014, 36.813287 ], [ -119.7364452, 36.8132671 ], [ -119.7364311, 36.8148085 ], [ -119.7373584, 36.8148142 ], [ -119.7373548, 36.81531 ], [ -119.737461, 36.8153129 ], [ -119.7374575, 36.8157549 ], [ -119.7392518, 36.8157747 ] ] ] } },
{ "type": "Feature", "properties": { "landuse": "farmyard", "osm_id": "way/1326515128" }, "geometry": { "type": "Polygon", "coordinates": [ [ [ -119.7508374, 36.8266681 ], [ -119.750669, 36.8266005 ], [ -119.7506235, 36.8255657 ], [ -119.7506076, 36.8255372 ], [ -119.7505788, 36.8255094 ], [ -119.7505317, 36.8254982 ], [ -119.750029, 36.8254945 ], [ -119.7499883, 36.8255032 ], [ -119.7499445, 36.8255253 ], [ -119.7499122, 36.8255531 ], [ -119.7499168, 36.8266019 ], [ -119.7497469, 36.8266027 ], [ -119.7496948, 36.8251695 ], [ -119.7517387, 36.8250879 ], [ -119.7508374, 36.8266681 ] ] ] } }
]
}
