{
"type": "FeatureCollection",
"name": "campus_boundary",
"crs": { "type": "name", "properties": { "name": "urn:ogc:def:crs:OGC:1.3:CRS84" } },
"features": [
{ "type": "Feature", "properties": { "name": "Fresno State main campus (excluding farm)", "area_m2": 1841868 }, "geometry": { "type": "Polygon", "coordinates": [ [ [ -119.760837899999984, 36.8140539 ], [ -119.7608497, 36.814068899999988 ], [ -119.7608372, 36.8157266 ], [ -119.757726399999981, 36.8157452 ], [ -119.7568654, 36.8157503 ], [ -119.7568171, 36.8157506 ], [ -119.7545823, 36.8157572 ], [ -119.7540214, 36.8157548 ], [ -119.754023900000021, 36.8160205 ], [ -119.754023983242618, 36.816132300147508 ], [ -119.754018369914306, 36.816135000208746 ], [ -119.753998806293708, 36.816143383054595 ], [ -119.753978750870786, 36.816150977544524 ], [ -119.753972716603059, 36.816152975671045 ], [ -119.7539726, 36.8160023 ], [ -119.75181, 36.8159932 ], [ -119.751737, 36.8180738 ], [ -119.749681, 36.8180632 ], [ -119.7496543, 36.8168711 ], [ -119.746325, 36.8168628 ], [ -119.746319, 36.8171242 ], [ -119.7451849, 36.8171118 ], [ -119.745186390789485, 36.817271078329966 ], [ -119.745175917839717, 36.817267958123807 ], [ -119.745155832858302, 36.817261061617408 ], [ -119.745136189757304, 36.817253386340504 ], [ -119.745117035215017, 36.817244950532007 ], [ -119.745116592067177, 36.81724473214576 ], [ -119.74511840000001, 36.8167392 ], [ -119.743858500000016, 36.8167364 ], [ -119.743862, 36.8170764 ], [ -119.743486200000021, 36.8170735 ], [ -119.7427216, 36.817066199999985 ], [ -119.7416485, 36.8170557 ], [ -119.7416625, 36.8166407 ], [ -119.741088100000013, 36.816637 ], [ -119.7410507, 36.8173996 ], [ -119.740849900000015, 36.8174034 ], [ -119.7408402, 36.8177886 ], [ -119.740182100000013, 36.8177922 ], [ -119.740186800000018, 36.8172688 ], [ -119.739523599999984, 36.817265 ], [ -119.738627, 36.817265 ], [ -119.7383842, 36.817081899999984 ], [ -119.736334, 36.81707440000001 ], [ -119.7363338328352, 36.817272851135108 ], [ -119.736323841285838, 36.817275309238489 ], [ -119.736302862109341, 36.817279591538423 ], [ -119.736281650174192, 36.817283054191414 ], [ -119.736260254988764, 36.817285689115636 ], [ -119.736238726489233, 36.817287490161192 ], [ -119.736217114922937, 36.817288453124441 ], [ -119.736195470731005, 36.817288575757793 ], [ -119.736173844430766, 36.817287857774978 ], [ -119.736152286497912, 36.817286300851769 ], [ -119.736130847248418, 36.817283908621953 ], [ -119.73610957672129, 36.817280686668951 ], [ -119.736088524561723, 36.817276642512745 ], [ -119.736067739905295, 36.817271785592318 ], [ -119.736047271263047, 36.817266127243656 ], [ -119.736027166408633, 36.81725968067326 ], [ -119.73600747226638, 36.817252460927335 ], [ -119.735988234802178, 36.817244484856651 ], [ -119.735977209547059, 36.817239357176646 ], [ -119.7359758, 36.8170849 ], [ -119.7359909, 36.8163527 ], [ -119.7359865, 36.8161651 ], [ -119.735976300000019, 36.8161216 ], [ -119.7359595, 36.8160794 ], [ -119.735936, 36.8160387 ], [ -119.735915, 36.8160179 ], [ -119.7358133, 36.8159594 ], [ -119.7357808, 36.8159463 ], [ -119.7357076, 36.8159376 ], [ -119.7355867, 36.815897 ], [ -119.7352951, 36.8158909 ], [ -119.735077163227771, 36.815889265110151 ], [ -119.735076441512419, 36.815888270642212 ], [ -119.735066431412307, 36.815872803387094 ], [ -119.735057363929116, 36.815856964793738 ], [ -119.735049260306894, 36.815840791971034 ], [ -119.735042139531316, 36.815824322810919 ], [ -119.735036018285285, 36.815807595899642 ], [ -119.73503091090987, 36.815790650427246 ], [ -119.735026829370653, 36.815773526095938 ], [ -119.735023783229735, 36.815756263026891 ], [ -119.735021779623324, 36.8157389016663 ], [ -119.735021692419039, 36.815737313373553 ], [ -119.735244599999987, 36.8157286 ], [ -119.735248400000017, 36.8150165 ], [ -119.736036, 36.8150244 ], [ -119.736044701359646, 36.814611754950541 ], [ -119.736055005007671, 36.814607167923853 ], [ -119.736075081715526, 36.814599255319052 ], [ -119.736095624411007, 36.81459215794758 ], [ -119.736116581927021, 36.814585893487269 ], [ -119.736137902063263, 36.814580477541377 ], [ -119.73615953171624, 36.814575923599705 ], [ -119.73618141701165, 36.814572243004967 ], [ -119.736203503438404, 36.814569444924672 ], [ -119.73622573598449, 36.814567536328099 ], [ -119.736248059274018, 36.814566521969084 ], [ -119.73627041770493, 36.814566404374119 ], [ -119.736292755587812, 36.814567183836076 ], [ -119.736315017284369, 36.814568858413473 ], [ -119.736337147346063, 36.814571423935298 ], [ -119.736359090652201, 36.81457487401142 ], [ -119.736380792547251, 36.814579200048499 ], [ -119.736402198977032, 36.814584391271389 ], [ -119.736423256623198, 36.814590434749967 ], [ -119.736433064787917, 36.814593701864624 ], [ -119.736431100000019, 36.8148085 ], [ -119.7373584, 36.8148142 ], [ -119.7373548, 36.81531 ], [ -119.737461, 36.8153129 ], [ -119.737457500000019, 36.8157549 ], [ -119.7392518, 36.8157747 ], [ -119.7392518, 36.8156676 ], [ -119.7392518, 36.814834 ], [ -119.7393155, 36.8147235 ], [ -119.7393014, 36.813287 ], [ -119.73644520000002, 36.8132671 ], [ -119.736436140262214, 36.814257485219471 ], [ -119.736419967952429, 36.814264581281378 ], [ -119.736400472685787, 36.81427217617972 ], [ -119.736380543591679, 36.814279004468936 ], [ -119.736360227267028, 36.814285050183507 ], [ -119.736339571214202, 36.814290299187668 ], [ -119.736318623730028, 36.814294739208421 ], [ -119.736297433792743, 36.814298359864338 ], [ -119.736276050947282, 36.814301152689822 ], [ -119.736254525189906, 36.814303111154793 ], [ -119.736232906850972, 36.814304230680023 ], [ -119.736211246477254, 36.814304508647893 ], [ -119.736189594713935, 36.814303944408422 ], [ -119.73616800218592, 36.814302539280881 ], [ -119.736146519379801, 36.814300296550613 ], [ -119.736125196525506, 36.814297221461459 ], [ -119.73610408347885, 36.814293321203337 ], [ -119.736083229605171, 36.814288604895616 ], [ -119.736062683663945, 36.814283083565684 ], [ -119.736051704414351, 36.814279650333674 ], [ -119.736056100000013, 36.8140712 ], [ -119.7356654, 36.8140632 ], [ -119.735663, 36.813985299999985 ], [ -119.7352888, 36.8139815 ], [ -119.7352879, 36.8135349 ], [ -119.73301210000001, 36.8135159 ], [ -119.732799699999987, 36.8135143 ], [ -119.7290831, 36.8134859 ], [ -119.729030429179716, 36.81351114772076 ], [ -119.729018768304911, 36.813496694785378 ], [ -119.729007679005733, 36.813481343061021 ], [ -119.728997543891509, 36.813465570672896 ], [ -119.728988387580003, 36.813449415932389 ], [ -119.728980232311471, 36.813432918079684 ], [ -119.72897837266963, 36.813428538796067 ], [ -119.730342100000016, 36.812142599999987 ], [ -119.73154980000001, 36.8111089 ], [ -119.7325667, 36.810315299999985 ], [ -119.732783500000011, 36.8101738 ], [ -119.733028500000017, 36.8100642 ], [ -119.733441700000014, 36.8099469 ], [ -119.7339452, 36.8098884 ], [ -119.73439, 36.8098084 ], [ -119.7346246, 36.8096685 ], [ -119.734838, 36.809466 ], [ -119.7349185, 36.8092596 ], [ -119.734945199999984, 36.8088985 ], [ -119.7351816, 36.8087708 ], [ -119.7360589, 36.8087952 ], [ -119.7361261, 36.808837 ], [ -119.73647, 36.8088197 ], [ -119.7365523, 36.8088156 ], [ -119.736553, 36.8087521 ], [ -119.740692, 36.8087612 ], [ -119.7451036, 36.8087709 ], [ -119.7539666, 36.8088011 ], [ -119.7540072, 36.8088353 ], [ -119.7540176, 36.8110816 ], [ -119.754014700000013, 36.8123284 ], [ -119.7544168, 36.8123284 ], [ -119.7608404, 36.812329 ], [ -119.7608497, 36.8139455 ], [ -119.760838, 36.8139605 ], [ -119.760837899999984, 36.8140539 ] ], [ [ -119.746185899999986, 36.816736899999988 ], [ -119.746188600000011, 36.8159618 ], [ -119.745247100000014, 36.815953199999988 ], [ -119.7452391, 36.8167176 ], [ -119.746185899999986, 36.816736899999988 ] ] ] } }
]
}
