{
"type": "FeatureCollection",
"name": "food_drink",
"crs": { "type": "name", "properties": { "name": "urn:ogc:def:crs:OGC:1.3:CRS84" } },
"features": [
{ "type": "Feature", "properties": { "name": null, "building": null, "building:levels": null, "amenity": "vending_machine", "cuisine": null, "vending": "parking_tickets", "osm_id": "node/6695393617" }, "geometry": { "type": "Point", "coordinates": [ -119.7378857, 36.8158872 ] } },
{ "type": "Feature", "properties": { "name": null, "building": null, "building:levels": null, "amenity": "vending_machine", "cuisine": null, "vending": "parking_tickets", "osm_id": "node/9713132877" }, "geometry": { "type": "Point", "coordinates": [ -119.7448302, 36.8096791 ] } },
{ "type": "Feature", "properties": { "name": null, "building": null, "building:levels": null, "amenity": "vending_machine", "cuisine": null, "vending": "parking_tickets", "osm_id": "node/9713132878" }, "geometry": { "type": "Point", "coordinates": [ -119.7410544, 36.8122586 ] } },
{ "type": "Feature", "properties": { "name": "Raw Earth Juicery & Cafe", "building": null, "building:levels": null, "amenity": "fast_food", "cuisine": "juice", "vending": null, "osm_id": "node/11903199921" }, "geometry": { "type": "Point", "coordinates": [ -119.7353126, 36.812416 ] } },
{ "type": "Feature", "properties": { "name": "Sweet Lyfe Boba Bar", "building": null, "building:levels": null, "amenity": "cafe", "cuisine": "bubble_tea", "vending": null, "osm_id": "node/11903199923" }, "geometry": { "type": "Point", "coordinates": [ -119.7351127, 36.8124168 ] } },
{ "type": "Feature", "properties": { "name": "Wayside Noodles", "building": null, "building:levels": null, "amenity": "restaurant", "cuisine": "noodle;ramen", "vending": null, "osm_id": "node/11903199926" }, "geometry": { "type": "Point", "coordinates": [ -119.7343285, 36.8124234 ] } },
{ "type": "Feature", "properties": { "name": "Mochinut", "building": null, "building:levels": null, "amenity": "fast_food", "cuisine": "donut;bubble_tea", "vending": null, "osm_id": "node/11903199927" }, "geometry": { "type": "Point", "coordinates": [ -119.7341828, 36.8124252 ] } },
{ "type": "Feature", "properties": { "name": "Collect Coffee Bar", "building": null, "building:levels": null, "amenity": "cafe", "cuisine": "coffee_shop", "vending": null, "osm_id": "node/11903199929" }, "geometry": { "type": "Point", "coordinates": [ -119.7336166, 36.8124098 ] } },
{ "type": "Feature", "properties": { "name": "Pieology Pizzeria", "building": null, "building:levels": null, "amenity": "restaurant", "cuisine": "pizza", "vending": null, "osm_id": "node/11903199930" }, "geometry": { "type": "Point", "coordinates": [ -119.7341681, 36.8120411 ] } },
{ "type": "Feature", "properties": { "name": "Que Pasa Mexican Cafe", "building": null, "building:levels": null, "amenity": "restaurant", "cuisine": "mexican", "vending": null, "osm_id": "node/11903199931" }, "geometry": { "type": "Point", "coordinates": [ -119.7341641, 36.8118842 ] } },
{ "type": "Feature", "properties": { "name": "Mad Duck Craft Brewing Co", "building": null, "building:levels": null, "amenity": "restaurant", "cuisine": "american", "vending": null, "osm_id": "node/11903199932" }, "geometry": { "type": "Point", "coordinates": [ -119.7346736, 36.811668 ] } },
{ "type": "Feature", "properties": { "name": "Hino Oishi", "building": null, "building:levels": null, "amenity": "restaurant", "cuisine": "japanese;teppanyaki", "vending": null, "osm_id": "node/11903199933" }, "geometry": { "type": "Point", "coordinates": [ -119.734476, 36.811668 ] } },
{ "type": "Feature", "properties": { "name": "Ike's Love and Sandwiches", "building": null, "building:levels": null, "amenity": "fast_food", "cuisine": "sandwich", "vending": null, "osm_id": "node/11903199934" }, "geometry": { "type": "Point", "coordinates": [ -119.7349302, 36.811898 ] } },
{ "type": "Feature", "properties": { "name": "Wahoo's Fish Taco", "building": null, "building:levels": null, "amenity": "fast_food", "cuisine": "seafood;mexican", "vending": null, "osm_id": "node/11903199935" }, "geometry": { "type": "Point", "coordinates": [ -119.7348934, 36.8120572 ] } },
{ "type": "Feature", "properties": { "name": "Bulldoc Korean Fusion Cuisine", "building": null, "building:levels": null, "amenity": "restaurant", "cuisine": "korean;asian", "vending": null, "osm_id": "node/11903199937" }, "geometry": { "type": "Point", "coordinates": [ -119.7351654, 36.8120814 ] } },
{ "type": "Feature", "properties": { "name": "Dervo’s Deli and Grill", "building": null, "building:levels": null, "amenity": "restaurant", "cuisine": "sandwich;burger;deli", "vending": null, "osm_id": "node/11911077826" }, "geometry": { "type": "Point", "coordinates": [ -119.7405981, 36.8079207 ] } },
{ "type": "Feature", "properties": { "name": "Pearl Tea House", "building": null, "building:levels": null, "amenity": "cafe", "cuisine": "bubble_tea;tea;coffee_shop", "vending": null, "osm_id": "node/11911077828" }, "geometry": { "type": "Point", "coordinates": [ -119.7403616, 36.807919 ] } },
{ "type": "Feature", "properties": { "name": "Kam's Pizza", "building": null, "building:levels": null, "amenity": "restaurant", "cuisine": "pizza", "vending": null, "osm_id": "node/11911077829" }, "geometry": { "type": "Point", "coordinates": [ -119.7402535, 36.8079228 ] } },
{ "type": "Feature", "properties": { "name": "Red Wave Inn", "building": null, "building:levels": null, "amenity": "restaurant", "cuisine": "burger;chicken;mexican", "vending": null, "osm_id": "node/11911077857" }, "geometry": { "type": "Point", "coordinates": [ -119.7459455, 36.8080549 ] } },
{ "type": "Feature", "properties": { "name": "Chipotle", "building": null, "building:levels": null, "amenity": "fast_food", "cuisine": "mexican", "vending": null, "osm_id": "node/11911123724" }, "geometry": { "type": "Point", "coordinates": [ -119.7534141, 36.8081645 ] } },
{ "type": "Feature", "properties": { "name": "Jamba", "building": null, "building:levels": null, "amenity": "fast_food", "cuisine": "juice", "vending": null, "osm_id": "node/11911123726" }, "geometry": { "type": "Point", "coordinates": [ -119.7539064, 36.8079172 ] } },
{ "type": "Feature", "properties": { "name": "Uncle Harry's New York Bagelry", "building": null, "building:levels": null, "amenity": "fast_food", "cuisine": "bagel", "vending": null, "osm_id": "node/11911123727" }, "geometry": { "type": "Point", "coordinates": [ -119.7537803, 36.8079254 ] } },
{ "type": "Feature", "properties": { "name": "Wendy's", "building": "commercial", "building:levels": "1", "amenity": "fast_food", "cuisine": "burger", "vending": null, "osm_id": "way/1009061516" }, "geometry": { "type": "Polygon", "coordinates": [ [ [ -119.7547638, 36.808837 ], [ -119.7547635, 36.8088949 ], [ -119.7547833, 36.808895 ], [ -119.754783, 36.8089449 ], [ -119.7547921, 36.8089449 ], [ -119.7547919, 36.8089819 ], [ -119.7547828, 36.8089819 ], [ -119.7547823, 36.8090732 ], [ -119.7547115, 36.809073 ], [ -119.7547115, 36.8090803 ], [ -119.7546502, 36.80908 ], [ -119.7546507, 36.8089873 ], [ -119.7546652, 36.8089873 ], [ -119.7546655, 36.8089422 ], [ -119.7546464, 36.8089422 ], [ -119.754647, 36.8088365 ], [ -119.7547638, 36.808837 ] ] ] } },
{ "type": "Feature", "properties": { "name": "Dog House Grill", "building": "yes", "building:levels": null, "amenity": "restaurant", "cuisine": "burger;sandwich", "vending": null, "osm_id": "way/1283804870" }, "geometry": { "type": "Polygon", "coordinates": [ [ [ -119.7366511, 36.8083316 ], [ -119.7366506, 36.8083537 ], [ -119.7365008, 36.8083571 ], [ -119.7364652, 36.8083291 ], [ -119.7364668, 36.8080594 ], [ -119.7366543, 36.8080607 ], [ -119.7366543, 36.8080127 ], [ -119.7367425, 36.8080127 ], [ -119.7367419, 36.8080905 ], [ -119.7367127, 36.8080905 ], [ -119.7367148, 36.808247 ], [ -119.7367053, 36.8082474 ], [ -119.7367058, 36.8083299 ], [ -119.7366511, 36.8083316 ] ] ] } },
{ "type": "Feature", "properties": { "name": "Jack in the Box", "building": "yes", "building:levels": null, "amenity": "fast_food", "cuisine": "burger", "vending": null, "osm_id": "way/1283804871" }, "geometry": { "type": "Polygon", "coordinates": [ [ [ -119.7359619, 36.8082872 ], [ -119.7358239, 36.8082849 ], [ -119.7358277, 36.8082219 ], [ -119.7358118, 36.8082215 ], [ -119.7358121, 36.8081911 ], [ -119.7358194, 36.8081918 ], [ -119.7358218, 36.8080959 ], [ -119.7359624, 36.8080974 ], [ -119.7359587, 36.808232 ], [ -119.7359658, 36.808232 ], [ -119.7359619, 36.8082872 ] ] ] } },
{ "type": "Feature", "properties": { "name": "Buffalo Wild Wings", "building": "yes", "building:levels": null, "amenity": "restaurant", "cuisine": "wings", "vending": null, "osm_id": "way/1283804872" }, "geometry": { "type": "Polygon", "coordinates": [ [ [ -119.7354229, 36.8082438 ], [ -119.7353401, 36.8082443 ], [ -119.7353398, 36.8082695 ], [ -119.7352825, 36.8082704 ], [ -119.7352837, 36.8082825 ], [ -119.7352216, 36.8082814 ], [ -119.7352237, 36.8082445 ], [ -119.7352062, 36.808244 ], [ -119.7352074, 36.8081834 ], [ -119.7352207, 36.808183 ], [ -119.7352207, 36.8079567 ], [ -119.7354193, 36.807955 ], [ -119.7354229, 36.8082438 ] ] ] } },
{ "type": "Feature", "properties": { "name": "Starbucks", "building": "yes", "building:levels": null, "amenity": "cafe", "cuisine": "coffee_shop", "vending": null, "osm_id": "way/1283804873" }, "geometry": { "type": "Polygon", "coordinates": [ [ [ -119.7402718, 36.8082628 ], [ -119.7400843, 36.8082615 ], [ -119.7400855, 36.8081743 ], [ -119.7402731, 36.8081747 ], [ -119.7402718, 36.8082628 ] ] ] } },
{ "type": "Feature", "properties": { "name": "Popeyes", "building": "yes", "building:levels": null, "amenity": "fast_food", "cuisine": "chicken", "vending": null, "osm_id": "way/1283804878" }, "geometry": { "type": "Polygon", "coordinates": [ [ [ -119.7548808, 36.8105513 ], [ -119.7548792, 36.8105987 ], [ -119.754757, 36.8105991 ], [ -119.7547586, 36.8105496 ], [ -119.7546782, 36.81055 ], [ -119.7546788, 36.8104561 ], [ -119.7547461, 36.8104556 ], [ -119.7547461, 36.81044 ], [ -119.75492, 36.8104413 ], [ -119.7549216, 36.8105496 ], [ -119.7548808, 36.8105513 ] ] ] } },
{ "type": "Feature", "properties": { "name": "Taco Bell", "building": "yes", "building:levels": null, "amenity": "fast_food", "cuisine": "tex-mex", "vending": null, "osm_id": "way/1283804879" }, "geometry": { "type": "Polygon", "coordinates": [ [ [ -119.7548602, 36.8108131 ], [ -119.7546646, 36.8108115 ], [ -119.7546661, 36.810917 ], [ -119.7548598, 36.8109164 ], [ -119.7548602, 36.8108131 ] ] ] } },
{ "type": "Feature", "properties": { "name": "Marie Callender's", "building": "yes", "building:levels": null, "amenity": "restaurant", "cuisine": "american", "vending": null, "osm_id": "way/1283804881" }, "geometry": { "type": "Polygon", "coordinates": [ [ [ -119.7547829, 36.8083398 ], [ -119.7547635, 36.8082698 ], [ -119.754784, 36.8081992 ], [ -119.7547214, 36.808221 ], [ -119.754723, 36.8080156 ], [ -119.7545358, 36.8080187 ], [ -119.7545358, 36.8081291 ], [ -119.7544144, 36.8081287 ], [ -119.7543989, 36.8082245 ], [ -119.7544155, 36.8083008 ], [ -119.7545064, 36.8082995 ], [ -119.7545031, 36.8083824 ], [ -119.7547247, 36.8083776 ], [ -119.7547275, 36.8083376 ], [ -119.7547829, 36.8083398 ] ] ] } }
]
}
