{
"type": "FeatureCollection",
"name": "parking",
"crs": { "type": "name", "properties": { "name": "urn:ogc:def:crs:OGC:1.3:CRS84" } },
"features": [
{ "type": "Feature", "properties": { "amenity": "parking", "parking": null, "access": null, "osm_id": "way/61464633" }, "geometry": { "type": "Polygon", "coordinates": [ [ [ -119.7379472, 36.8082822 ], [ -119.7377277, 36.8082375 ], [ -119.737725, 36.8079562 ], [ -119.7373273, 36.8079571 ], [ -119.7369629, 36.8079579 ], [ -119.7369624, 36.8078395 ], [ -119.7364403, 36.8078452 ], [ -119.7364405, 36.8076585 ], [ -119.7366997, 36.807654 ], [ -119.7366998, 36.8075926 ], [ -119.7373385, 36.8075928 ], [ -119.7373386, 36.8073896 ], [ -119.7373387, 36.8071836 ], [ -119.7375563, 36.8071836 ], [ -119.7375562, 36.8073897 ], [ -119.7375561, 36.8075929 ], [ -119.7379771, 36.807593 ], [ -119.7379771, 36.8076804 ], [ -119.7379768, 36.8082847 ], [ -119.7379472, 36.8082822 ] ] ] } },
{ "type": "Feature", "properties": { "amenity": "parking", "parking": null, "access": null, "osm_id": "way/171482966" }, "geometry": { "type": "Polygon", "coordinates": [ [ [ -119.751657, 36.8159876 ], [ -119.7516496, 36.8166722 ], [ -119.7515185, 36.8168558 ], [ -119.7515065, 36.8179607 ], [ -119.7514744, 36.8179859 ], [ -119.7514446, 36.8179896 ], [ -119.7498425, 36.8179891 ], [ -119.7497724, 36.8179724 ], [ -119.7497433, 36.8179382 ], [ -119.7497414, 36.8169564 ], [ -119.7497395, 36.8169337 ], [ -119.7497333, 36.8169111 ], [ -119.7496314, 36.81674 ], [ -119.749609, 36.8166842 ], [ -119.7496073, 36.8166285 ], [ -119.7496015, 36.8166178 ], [ -119.7495573, 36.8166156 ], [ -119.749546, 36.8166223 ], [ -119.7495486, 36.8166683 ], [ -119.7481371, 36.8166623 ], [ -119.7481278, 36.8166138 ], [ -119.747982, 36.8166082 ], [ -119.7479648, 36.815973 ], [ -119.7489226, 36.8159726 ], [ -119.7497138, 36.8159723 ], [ -119.7497096, 36.8162007 ], [ -119.7498323, 36.816201 ], [ -119.7498335, 36.8160316 ], [ -119.7499082, 36.8160314 ], [ -119.7499092, 36.8159794 ], [ -119.751657, 36.8159876 ] ] ] } },
{ "type": "Feature", "properties": { "amenity": "parking", "parking": null, "access": null, "osm_id": "way/260983145" }, "geometry": { "type": "Polygon", "coordinates": [ [ [ -119.7538534, 36.8109306 ], [ -119.7538535, 36.8109795 ], [ -119.7531826, 36.8109766 ], [ -119.7525108, 36.8109758 ], [ -119.7524976, 36.8088502 ], [ -119.7528028, 36.8088526 ], [ -119.7529167, 36.808872 ], [ -119.7531046, 36.8089489 ], [ -119.7533161, 36.8090803 ], [ -119.7537332, 36.8093962 ], [ -119.7538221, 36.8094831 ], [ -119.7539377, 36.8096119 ], [ -119.7539317, 36.8109286 ], [ -119.7538534, 36.8109306 ] ] ] } },
{ "type": "Feature", "properties": { "amenity": "parking", "parking": null, "access": null, "osm_id": "way/260983146" }, "geometry": { "type": "Polygon", "coordinates": [ [ [ -119.7515783, 36.8155586 ], [ -119.7510285, 36.8155572 ], [ -119.7510334, 36.8143515 ], [ -119.7515832, 36.8143529 ], [ -119.7515783, 36.8155586 ] ] ] } },
{ "type": "Feature", "properties": { "amenity": "parking", "parking": "surface", "access": "private", "osm_id": "way/260983156" }, "geometry": { "type": "Polygon", "coordinates": [ [ [ -119.7424847, 36.8143379 ], [ -119.742004, 36.81433 ], [ -119.7420012, 36.814279 ], [ -119.7408678, 36.8142622 ], [ -119.7408703, 36.8135158 ], [ -119.7409328, 36.8135141 ], [ -119.7409285, 36.8132705 ], [ -119.7408719, 36.8132685 ], [ -119.7408761, 36.8122178 ], [ -119.7409403, 36.8122143 ], [ -119.7409401, 36.8119673 ], [ -119.7408771, 36.8119617 ], [ -119.740883, 36.8110603 ], [ -119.7409485, 36.8110569 ], [ -119.7409542, 36.8110468 ], [ -119.7412215, 36.811045 ], [ -119.741222, 36.8109923 ], [ -119.742173, 36.8109971 ], [ -119.7422069, 36.8111314 ], [ -119.7422068, 36.811209 ], [ -119.7423991, 36.8114606 ], [ -119.7424793, 36.8115553 ], [ -119.7424764, 36.8127929 ], [ -119.7424773, 36.8132811 ], [ -119.7424784, 36.8138236 ], [ -119.7424847, 36.8143379 ] ] ] } },
{ "type": "Feature", "properties": { "amenity": "parking", "parking": null, "access": null, "osm_id": "way/260983161" }, "geometry": { "type": "Polygon", "coordinates": [ [ [ -119.7480825, 36.8104257 ], [ -119.7487074, 36.8104343 ], [ -119.7487021, 36.8115209 ], [ -119.7484258, 36.8115531 ], [ -119.7480852, 36.8114973 ], [ -119.7480825, 36.8104257 ] ] ] } },
{ "type": "Feature", "properties": { "amenity": "parking", "parking": null, "access": null, "osm_id": "way/260983162" }, "geometry": { "type": "Polygon", "coordinates": [ [ [ -119.7496516, 36.8101745 ], [ -119.7489984, 36.8101724 ], [ -119.7490013, 36.8106498 ], [ -119.7490189, 36.8107589 ], [ -119.7491527, 36.8110678 ], [ -119.7497133, 36.8110635 ], [ -119.7497094, 36.8104747 ], [ -119.7496548, 36.8103971 ], [ -119.7496516, 36.8101745 ] ] ] } },
{ "type": "Feature", "properties": { "amenity": "parking", "parking": null, "access": null, "osm_id": "way/469235013" }, "geometry": { "type": "Polygon", "coordinates": [ [ [ -119.7532184, 36.8305822 ], [ -119.7525679, 36.8305902 ], [ -119.752558, 36.8304263 ], [ -119.7532184, 36.8304276 ], [ -119.7532184, 36.8305822 ] ] ] } },
{ "type": "Feature", "properties": { "amenity": "parking", "parking": "surface", "access": "yes", "osm_id": "way/557196797" }, "geometry": { "type": "Polygon", "coordinates": [ [ [ -119.7347967, 36.8117698 ], [ -119.7354032, 36.8117783 ], [ -119.7354048, 36.8117031 ], [ -119.7359738, 36.8117111 ], [ -119.7360835, 36.8116004 ], [ -119.7360901, 36.8112061 ], [ -119.7356729, 36.8112017 ], [ -119.7356781, 36.8108899 ], [ -119.7331418, 36.810856 ], [ -119.7330632, 36.8108889 ], [ -119.7330567, 36.8116166 ], [ -119.7336727, 36.8116232 ], [ -119.7337377, 36.8116508 ], [ -119.7337364, 36.8117514 ], [ -119.734255, 36.8117557 ], [ -119.7342581, 36.8115174 ], [ -119.7343272, 36.8114572 ], [ -119.7347622, 36.8114621 ], [ -119.7348029, 36.8114865 ], [ -119.7347967, 36.8117698 ] ] ] } },
{ "type": "Feature", "properties": { "amenity": "parking", "parking": "surface", "access": "yes", "osm_id": "way/557196799" }, "geometry": { "type": "Polygon", "coordinates": [ [ [ -119.7360584, 36.8126964 ], [ -119.7352045, 36.8126928 ], [ -119.7351909, 36.8130847 ], [ -119.7347548, 36.8130806 ], [ -119.7347223, 36.8131213 ], [ -119.7344784, 36.8131181 ], [ -119.7344499, 36.8130757 ], [ -119.7339092, 36.8130627 ], [ -119.733832, 36.8130041 ], [ -119.733836, 36.8126298 ], [ -119.7337669, 36.8125664 ], [ -119.7335433, 36.8125615 ], [ -119.7334783, 36.8126559 ], [ -119.7330461, 36.8126499 ], [ -119.7330304, 36.8133787 ], [ -119.7360428, 36.8134204 ], [ -119.7360584, 36.8126964 ] ] ] } },
{ "type": "Feature", "properties": { "amenity": "parking", "parking": null, "access": null, "osm_id": "way/558166165" }, "geometry": { "type": "Polygon", "coordinates": [ [ [ -119.742213, 36.8106374 ], [ -119.7422232, 36.8094958 ], [ -119.7427914, 36.8094952 ], [ -119.7428069, 36.8095145 ], [ -119.7428495, 36.8095358 ], [ -119.7432917, 36.8095547 ], [ -119.7435351, 36.8095895 ], [ -119.7437827, 36.8096361 ], [ -119.7441175, 36.8096725 ], [ -119.7442769, 36.8097271 ], [ -119.7442591, 36.8097751 ], [ -119.7444624, 36.8098005 ], [ -119.7446678, 36.8098025 ], [ -119.7446643, 36.8097494 ], [ -119.7448448, 36.8097481 ], [ -119.7448855, 36.8097165 ], [ -119.7448867, 36.8095436 ], [ -119.7448908, 36.8088385 ], [ -119.7448194, 36.8088083 ], [ -119.7442147, 36.8088086 ], [ -119.7441356, 36.8088678 ], [ -119.7441374, 36.8088222 ], [ -119.7410446, 36.80881 ], [ -119.7410456, 36.8088573 ], [ -119.7410323, 36.8088746 ], [ -119.7410111, 36.8088804 ], [ -119.7409501, 36.8088791 ], [ -119.7409352, 36.8106349 ], [ -119.7410074, 36.8106334 ], [ -119.7410115, 36.8106829 ], [ -119.7421048, 36.8106856 ], [ -119.7421167, 36.8106472 ], [ -119.7421558, 36.8106373 ], [ -119.742213, 36.8106374 ] ] ] } },
{ "type": "Feature", "properties": { "amenity": "parking", "parking": null, "access": null, "osm_id": "way/558166168" }, "geometry": { "type": "Polygon", "coordinates": [ [ [ -119.7405999, 36.8120302 ], [ -119.7392495, 36.8120241 ], [ -119.7390674, 36.812182 ], [ -119.7370343, 36.8121881 ], [ -119.7369508, 36.8121 ], [ -119.7365639, 36.8120909 ], [ -119.7365639, 36.8108458 ], [ -119.736746, 36.8107183 ], [ -119.736746, 36.8102718 ], [ -119.7405695, 36.81029 ], [ -119.7406151, 36.8103781 ], [ -119.7405999, 36.8120302 ] ] ] } },
{ "type": "Feature", "properties": { "amenity": "parking", "parking": null, "access": null, "osm_id": "way/558168301" }, "geometry": { "type": "Polygon", "coordinates": [ [ [ -119.7440834, 36.8113062 ], [ -119.7440888, 36.8105696 ], [ -119.743201, 36.8105675 ], [ -119.743201, 36.8109401 ], [ -119.742576, 36.8109261 ], [ -119.7423373, 36.8109626 ], [ -119.7424714, 36.8113019 ], [ -119.7425841, 36.8112912 ], [ -119.7440834, 36.8113062 ] ] ] } },
{ "type": "Feature", "properties": { "amenity": "parking", "parking": null, "access": null, "osm_id": "way/558168302" }, "geometry": { "type": "Polygon", "coordinates": [ [ [ -119.7403721, 36.8101023 ], [ -119.7405268, 36.810102 ], [ -119.7405269, 36.810033 ], [ -119.7405797, 36.8100315 ], [ -119.7405822, 36.8096826 ], [ -119.7405202, 36.8096809 ], [ -119.7403662, 36.8096783 ], [ -119.7403721, 36.8101023 ] ] ] } },
{ "type": "Feature", "properties": { "amenity": "parking", "parking": null, "access": null, "osm_id": "way/712073579" }, "geometry": { "type": "Polygon", "coordinates": [ [ [ -119.7447515, 36.8141973 ], [ -119.7451136, 36.8141672 ], [ -119.7451055, 36.8155791 ], [ -119.7450452, 36.815622 ], [ -119.7450226, 36.8156289 ], [ -119.7448412, 36.8156842 ], [ -119.7447421, 36.8157143 ], [ -119.7447495, 36.8145205 ], [ -119.7447515, 36.8141973 ] ] ] } },
{ "type": "Feature", "properties": { "amenity": "parking", "parking": null, "access": null, "osm_id": "way/712073586" }, "geometry": { "type": "Polygon", "coordinates": [ [ [ -119.7428163, 36.8157723 ], [ -119.7428149, 36.8156059 ], [ -119.7431663, 36.8156048 ], [ -119.7432106, 36.8156746 ], [ -119.7432079, 36.8157712 ], [ -119.7428163, 36.8157723 ] ] ] } },
{ "type": "Feature", "properties": { "amenity": "parking", "parking": null, "access": null, "osm_id": "way/712073587" }, "geometry": { "type": "Polygon", "coordinates": [ [ [ -119.7440957, 36.8157766 ], [ -119.7440957, 36.8157337 ], [ -119.7438529, 36.8157337 ], [ -119.7438529, 36.8157766 ], [ -119.7440957, 36.8157766 ] ] ] } },
{ "type": "Feature", "properties": { "amenity": "parking", "parking": null, "access": null, "osm_id": "way/712073588" }, "geometry": { "type": "Polygon", "coordinates": [ [ [ -119.743749, 36.8156945 ], [ -119.743749, 36.8157503 ], [ -119.7435894, 36.8157503 ], [ -119.7435894, 36.8156945 ], [ -119.743749, 36.8156945 ] ] ] } },
{ "type": "Feature", "properties": { "amenity": "parking", "parking": "surface", "access": "permit", "osm_id": "way/712073589" }, "geometry": { "type": "Polygon", "coordinates": [ [ [ -119.7426965, 36.8165471 ], [ -119.7426967, 36.8166035 ], [ -119.7430407, 36.8166026 ], [ -119.7430405, 36.8165462 ], [ -119.7426965, 36.8165471 ] ] ] } },
{ "type": "Feature", "properties": { "amenity": "parking", "parking": "surface", "access": null, "osm_id": "way/712073590" }, "geometry": { "type": "Polygon", "coordinates": [ [ [ -119.7417697, 36.8167189 ], [ -119.7417693, 36.8166566 ], [ -119.741707, 36.8166568 ], [ -119.7417074, 36.8167191 ], [ -119.7417697, 36.8167189 ] ] ] } },
{ "type": "Feature", "properties": { "amenity": "parking", "parking": null, "access": "permit", "osm_id": "way/712089281" }, "geometry": { "type": "Polygon", "coordinates": [ [ [ -119.7367944, 36.8169664 ], [ -119.7370164, 36.8169675 ], [ -119.7370183, 36.8167153 ], [ -119.7367964, 36.8167142 ], [ -119.7367944, 36.8169664 ] ] ] } },
{ "type": "Feature", "properties": { "amenity": "parking", "parking": "surface", "access": "permit", "osm_id": "way/712089283" }, "geometry": { "type": "Polygon", "coordinates": [ [ [ -119.7374813, 36.817051 ], [ -119.7372188, 36.8170518 ], [ -119.7372186, 36.817006 ], [ -119.7374811, 36.8170051 ], [ -119.7374813, 36.817051 ] ] ] } },
{ "type": "Feature", "properties": { "amenity": "parking", "parking": "surface", "access": null, "osm_id": "way/712089286" }, "geometry": { "type": "Polygon", "coordinates": [ [ [ -119.737137, 36.8158955 ], [ -119.737137, 36.8159916 ], [ -119.7371994, 36.8159916 ], [ -119.7371994, 36.8158955 ], [ -119.737137, 36.8158955 ] ] ] } },
{ "type": "Feature", "properties": { "amenity": "parking", "parking": "surface", "access": null, "osm_id": "way/712089287" }, "geometry": { "type": "Polygon", "coordinates": [ [ [ -119.7373051, 36.816002 ], [ -119.7373042, 36.8158984 ], [ -119.7373746, 36.815898 ], [ -119.7373755, 36.8160016 ], [ -119.7373051, 36.816002 ] ] ] } },
{ "type": "Feature", "properties": { "amenity": "parking", "parking": "surface", "access": null, "osm_id": "way/712089289" }, "geometry": { "type": "Polygon", "coordinates": [ [ [ -119.7367759, 36.8166006 ], [ -119.7370375, 36.8166017 ], [ -119.7370334, 36.8161454 ], [ -119.7367719, 36.8161411 ], [ -119.7367759, 36.8166006 ] ] ] } },
{ "type": "Feature", "properties": { "amenity": "parking", "parking": null, "access": null, "osm_id": "way/712089299" }, "geometry": { "type": "Polygon", "coordinates": [ [ [ -119.7397967, 36.8165957 ], [ -119.7396437, 36.8165927 ], [ -119.7396453, 36.8165401 ], [ -119.7397983, 36.8165431 ], [ -119.7397967, 36.8165957 ] ] ] } },
{ "type": "Feature", "properties": { "amenity": "parking", "parking": null, "access": null, "osm_id": "way/712089306" }, "geometry": { "type": "Polygon", "coordinates": [ [ [ -119.7406153, 36.8162622 ], [ -119.7406159, 36.8160077 ], [ -119.7404954, 36.8160075 ], [ -119.7404955, 36.8159473 ], [ -119.7402483, 36.815947 ], [ -119.7402482, 36.8160047 ], [ -119.7404169, 36.8160049 ], [ -119.7404166, 36.8161092 ], [ -119.7405532, 36.8161094 ], [ -119.7405528, 36.8162621 ], [ -119.7406153, 36.8162622 ] ] ] } },
{ "type": "Feature", "properties": { "amenity": "parking", "parking": null, "access": null, "osm_id": "way/712089321" }, "geometry": { "type": "Polygon", "coordinates": [ [ [ -119.7401498, 36.8152746 ], [ -119.7408149, 36.8152711 ], [ -119.7408119, 36.8149033 ], [ -119.7401468, 36.8149068 ], [ -119.7401498, 36.8152746 ] ] ] } },
{ "type": "Feature", "properties": { "amenity": "parking", "parking": null, "access": null, "osm_id": "way/712089327" }, "geometry": { "type": "Polygon", "coordinates": [ [ [ -119.7375431, 36.8161282 ], [ -119.7375388, 36.8162666 ], [ -119.7376106, 36.816268 ], [ -119.7376149, 36.8161296 ], [ -119.7375431, 36.8161282 ] ] ] } },
{ "type": "Feature", "properties": { "amenity": "parking", "parking": null, "access": null, "osm_id": "way/712089331" }, "geometry": { "type": "Polygon", "coordinates": [ [ [ -119.7371533, 36.8156765 ], [ -119.7371507, 36.8155251 ], [ -119.7371708, 36.8155262 ], [ -119.7371694, 36.8154188 ], [ -119.7372539, 36.815421 ], [ -119.7372553, 36.8153727 ], [ -119.737435, 36.8153834 ], [ -119.7374484, 36.815684 ], [ -119.7371533, 36.8156765 ] ] ] } },
{ "type": "Feature", "properties": { "amenity": "parking", "parking": null, "access": null, "osm_id": "way/712089345" }, "geometry": { "type": "Polygon", "coordinates": [ [ [ -119.7429913, 36.8149955 ], [ -119.7431817, 36.8149912 ], [ -119.74323, 36.8150546 ], [ -119.7438322, 36.8151909 ], [ -119.7437343, 36.8153874 ], [ -119.7432877, 36.8152779 ], [ -119.743167, 36.815337 ], [ -119.7430731, 36.8152543 ], [ -119.7431388, 36.8152156 ], [ -119.7429993, 36.815075 ], [ -119.7429913, 36.8149955 ] ] ] } },
{ "type": "Feature", "properties": { "amenity": "parking", "parking": null, "access": null, "osm_id": "way/712102620" }, "geometry": { "type": "Polygon", "coordinates": [ [ [ -119.7454207, 36.8145499 ], [ -119.7456299, 36.8145542 ], [ -119.7456124, 36.8155398 ], [ -119.7475611, 36.8155495 ], [ -119.7475745, 36.8154131 ], [ -119.7476509, 36.8154099 ], [ -119.7476509, 36.8155452 ], [ -119.7479848, 36.8155419 ], [ -119.7479862, 36.815645 ], [ -119.7482397, 36.8156418 ], [ -119.748241, 36.8155774 ], [ -119.7484381, 36.8155849 ], [ -119.7484435, 36.8157234 ], [ -119.7454153, 36.8157127 ], [ -119.7454207, 36.8145499 ] ] ] } },
{ "type": "Feature", "properties": { "amenity": "parking", "parking": null, "access": null, "osm_id": "way/712102625" }, "geometry": { "type": "Polygon", "coordinates": [ [ [ -119.747633, 36.8162311 ], [ -119.7476343, 36.8161828 ], [ -119.7476407, 36.8159708 ], [ -119.7478533, 36.8159715 ], [ -119.7478513, 36.8162308 ], [ -119.7476953, 36.8162303 ], [ -119.747633, 36.8162311 ] ] ] } },
{ "type": "Feature", "properties": { "amenity": "parking", "parking": null, "access": null, "osm_id": "way/712102646" }, "geometry": { "type": "Polygon", "coordinates": [ [ [ -119.7508441, 36.8143115 ], [ -119.7505557, 36.8143126 ], [ -119.7505517, 36.8143738 ], [ -119.7504967, 36.8144114 ], [ -119.7504941, 36.8152156 ], [ -119.750545, 36.8151791 ], [ -119.7507918, 36.8151866 ], [ -119.7508441, 36.8151286 ], [ -119.7508441, 36.8143115 ] ] ] } },
{ "type": "Feature", "properties": { "amenity": "parking", "parking": null, "access": null, "osm_id": "way/712102647" }, "geometry": { "type": "Polygon", "coordinates": [ [ [ -119.7507717, 36.8140592 ], [ -119.7507046, 36.8140098 ], [ -119.7490255, 36.8140066 ], [ -119.7490269, 36.814056 ], [ -119.7507717, 36.8140592 ] ] ] } },
{ "type": "Feature", "properties": { "amenity": "parking", "parking": null, "access": null, "osm_id": "way/712102648" }, "geometry": { "type": "Polygon", "coordinates": [ [ [ -119.749055, 36.8141247 ], [ -119.7491047, 36.8141677 ], [ -119.7505705, 36.814172 ], [ -119.7505303, 36.8141215 ], [ -119.749055, 36.8141247 ] ] ] } },
{ "type": "Feature", "properties": { "amenity": "parking", "parking": null, "access": null, "osm_id": "way/952968288" }, "geometry": { "type": "Polygon", "coordinates": [ [ [ -119.7405634, 36.8093854 ], [ -119.7405344, 36.8093854 ], [ -119.7405302, 36.8093921 ], [ -119.7404372, 36.8093917 ], [ -119.7404336, 36.8093858 ], [ -119.7403755, 36.809385 ], [ -119.7403766, 36.8092603 ], [ -119.7404356, 36.8092607 ], [ -119.7404409, 36.8092553 ], [ -119.7404404, 36.8092381 ], [ -119.7405229, 36.8092381 ], [ -119.7405229, 36.8092548 ], [ -119.7405255, 36.8092607 ], [ -119.7405647, 36.8092624 ], [ -119.7405634, 36.8093854 ] ] ] } },
{ "type": "Feature", "properties": { "amenity": "parking", "parking": null, "access": null, "osm_id": "way/1057078384" }, "geometry": { "type": "Polygon", "coordinates": [ [ [ -119.7454212, 36.8097705 ], [ -119.7454638, 36.8098045 ], [ -119.7455067, 36.8097514 ], [ -119.7455443, 36.8096478 ], [ -119.745555, 36.8095877 ], [ -119.7455423, 36.8094674 ], [ -119.7455127, 36.8093777 ], [ -119.7454718, 36.8093112 ], [ -119.7454222, 36.8093487 ], [ -119.7454544, 36.809403 ], [ -119.7454812, 36.8094717 ], [ -119.7454853, 36.809563 ], [ -119.7454745, 36.8096607 ], [ -119.7454407, 36.8097403 ], [ -119.7454212, 36.8097705 ] ] ] } },
{ "type": "Feature", "properties": { "amenity": "parking", "parking": null, "access": null, "osm_id": "way/1096809164" }, "geometry": { "type": "Polygon", "coordinates": [ [ [ -119.7366325, 36.8092179 ], [ -119.7366628, 36.8092182 ], [ -119.7366628, 36.8091899 ], [ -119.7370437, 36.8091906 ], [ -119.7370497, 36.8098133 ], [ -119.7370066, 36.8098509 ], [ -119.736631, 36.8098545 ], [ -119.7366325, 36.8092179 ] ] ] } }
]
}
